IRIDIUM 921             
1 24873U 97034E   24169.83966447  .00027591  00000+0  70034-3 0  9996
2 24873  86.3804 287.7906 0003403 221.7685 138.3309 15.39527562475283
IRIDIUM 26              
1 24903U 97043A   24169.53782896  .00000532  00000+0  17504-3 0  9990
2 24903  86.3957 263.6065 0002065  99.3036 260.8394 14.36403004404385
IRIDIUM 22              
1 24907U 97043E   24169.80291347  .00000532  00000+0  17909-3 0  9999
2 24907  86.3959 266.7337 0002198  93.8164 266.3284 14.35291667404495
DUMMY MASS 1            
1 24925U 97048A   24169.86636602  .00000640  00000+0  69665-4 0  9994
2 24925  86.3338 303.6748 0007092  17.2489 342.8975 14.86246867451005
DUMMY MASS 2            
1 24926U 97048B   24169.90310731  .00000635  00000+0  69426-4 0  9991
2 24926  86.3337 305.2014 0008288  25.3785 334.7845 14.86004709450794
IRIDIUM 29              
1 24944U 97051A   24169.87529414  .00000571  00000+0  19084-3 0  9994
2 24944  86.3947 296.6153 0002181  86.8293 273.3153 14.35739840400981
IRIDIUM 33              
1 24946U 97051C   24169.83292292  .00000466  00000+0  15884-3 0  9990
2 24946  86.3862 295.8842 0008019 172.4387 187.6932 14.34390695400507
IRIDIUM 28              
1 24948U 97051E   24169.87874361  .00000576  00000+0  18890-3 0  9991
2 24948  86.3953 294.3363 0002061 104.9288 255.2138 14.36693660401526
